[{"norad_id":"65586","company":"STATIONS","tle_line2":"2 65586  51.6344 358.0397 0004876 356.3572   3.7380 15.49612377   271","launch_date":"2025-09-11","type":"LEO","tle_line1":"1 65586U 25204A   25303.19892820  .00018950  00000+0  34377-3 0  9994","satellite_name":"PROGRESS-MS 32"},{"norad_id":"65616","company":"STATIONS","tle_line2":"2 65616  51.6344 358.0397 0004876 356.3572   3.7380 15.49612377   220","launch_date":"2025-09-14","type":"LEO","tle_line1":"1 65616U 25208A   25303.19892820  .00018950  00000+0  34377-3 0  9992","satellite_name":"CYGNUS NG-23"},{"norad_id":"65729","company":"STATIONS","tle_line2":"2 65729  51.6315 355.8222 0003222  56.6849 303.4452 15.59168252  6366","launch_date":"1998-11-20","type":"LEO","tle_line1":"1 65729U 98067XH  25303.31557015  .00111484  00000+0  13829-2 0  9992","satellite_name":"DRAGONFLY"},{"norad_id":"65730","company":"STATIONS","tle_line2":"2 65730  51.6298 358.8330 0010539  29.8375 330.3219 15.66323976  6258","launch_date":"1998-11-20","type":"LEO","tle_line1":"1 65730U 98067XJ  25302.53161518  .00239609  00000+0  22027-2 0  9996","satellite_name":"1998-067XJ"},{"norad_id":"65731","company":"STATIONS","tle_line2":"2 65731  51.6331 358.2185 0004746  31.9735 328.1544 15.57238385  6295","launch_date":"1998-11-20","type":"LEO","tle_line1":"1 65731U 98067XK  25302.88804312  .00078376  00000+0  10515-2 0  9992","satellite_name":"1998-067XK"},{"norad_id":"65732","company":"STATIONS","tle_line2":"2 65732  51.6325 356.2185 0005534  33.3341 326.7999 15.58206282  6360","launch_date":"1998-11-20","type":"LEO","tle_line1":"1 65732U 98067XL  25303.26250097  .00095490  00000+0  12312-2 0  9994","satellite_name":"RSP-03"},{"norad_id":"65733","company":"STATIONS","tle_line2":"2 65733  51.6326 355.7752 0003636  53.0347 307.0978 15.59809087  6375","launch_date":"1998-11-20","type":"LEO","tle_line1":"1 65733U 98067XM  25303.30826846  .00125230  00000+0  15127-2 0  9994","satellite_name":"GHS-01"},{"norad_id":"65941","company":"STATIONS","tle_line2":"2 65941  51.6334 357.5299 0002513 335.1462  24.9407 15.52948261  3084","launch_date":"1998-11-20","type":"LEO","tle_line1":"1 65941U 98067XN  25303.23480376  .00065369  00000+0  10296-2 0  9999","satellite_name":"YOTSUBA-KULOVER"},{"norad_id":"65942","company":"STATIONS","tle_line2":"2 65942  51.6334 357.4989 0004562 354.4119   5.6819 15.53700317  3081","launch_date":"1998-11-20","type":"LEO","tle_line1":"1 65942U 98067XP  25303.23003163  .00087247  00000+0  13309-2 0  9992","satellite_name":"BOTAN"},{"norad_id":"65943","company":"STATIONS","tle_line2":"2 65943  51.6334   1.0497 0004142 339.6599  20.4226 15.52865826  2979","launch_date":"1998-11-20","type":"LEO","tle_line1":"1 65943U 98067XQ  25302.52650378  .00055943  00000+0  88576-3 0  9997","satellite_name":"E-KAGAKU-1"},{"norad_id":"66052","company":"STATIONS","tle_line2":"2 66052  51.6330 357.3680 0004321   5.3640 354.7395 15.50461544  2091","launch_date":"1998-11-20","type":"LEO","tle_line1":"1 66052U 98067XR  25303.32297014  .00037972  00000+0  65914-3 0  9995","satellite_name":"HRC MONOBLOCK CAMERA"},{"norad_id":"66174","company":"STATIONS","tle_line2":"2 66174  51.6338  11.4824 0004046 344.0379  16.0483 15.52723727   245","launch_date":"2025-10-26","type":"LEO","tle_line1":"1 66174U 25241A   25300.49424941  .00010095  00000+0  16773-3 0  9996","satellite_name":"HTV-X1"}]