CCSDS_OMM_VERS = 2.0
CREATION_DATE  = 
ORIGINATOR     = 

OBJECT_NAME    = PROGRESS-MS 32
OBJECT_ID      = 2025-204A
CENTER_NAME    = EARTH
REF_FRAME      = TEME
TIME_SYSTEM    = UTC
MEAN_ELEMENT_THEORY = SGP/SGP4

EPOCH          = 2025-10-30T04:46:27.396480
MEAN_MOTION    = 15.49612377
ECCENTRICITY   = .00048762
INCLINATION    = 51.6344
RA_OF_ASC_NODE = 358.0397
ARG_OF_PERICENTER = 356.3572
MEAN_ANOMALY   = 3.7380

EPHEMERIS_TYPE = 0
CLASSIFICATION_TYPE = U
NORAD_CAT_ID   = 65586
ELEMENT_SET_NO = 999
REV_AT_EPOCH   = 27
BSTAR          = .34377426E-3
MEAN_MOTION_DOT = .1895E-3
MEAN_MOTION_DDOT = 0

CCSDS_OMM_VERS = 2.0
CREATION_DATE  = 
ORIGINATOR     = 

OBJECT_NAME    = CYGNUS NG-23
OBJECT_ID      = 2025-208A
CENTER_NAME    = EARTH
REF_FRAME      = TEME
TIME_SYSTEM    = UTC
MEAN_ELEMENT_THEORY = SGP/SGP4

EPOCH          = 2025-10-30T04:46:27.396480
MEAN_MOTION    = 15.49612377
ECCENTRICITY   = .00048762
INCLINATION    = 51.6344
RA_OF_ASC_NODE = 358.0397
ARG_OF_PERICENTER = 356.3572
MEAN_ANOMALY   = 3.7380

EPHEMERIS_TYPE = 0
CLASSIFICATION_TYPE = U
NORAD_CAT_ID   = 65616
ELEMENT_SET_NO = 999
REV_AT_EPOCH   = 22
BSTAR          = .34377426E-3
MEAN_MOTION_DOT = .1895E-3
MEAN_MOTION_DDOT = 0

CCSDS_OMM_VERS = 2.0
CREATION_DATE  = 
ORIGINATOR     = 

OBJECT_NAME    = DRAGONFLY
OBJECT_ID      = 1998-067XH
CENTER_NAME    = EARTH
REF_FRAME      = TEME
TIME_SYSTEM    = UTC
MEAN_ELEMENT_THEORY = SGP/SGP4

EPOCH          = 2025-10-30T07:34:25.260960
MEAN_MOTION    = 15.59168252
ECCENTRICITY   = .00032224
INCLINATION    = 51.6315
RA_OF_ASC_NODE = 355.8222
ARG_OF_PERICENTER = 56.6849
MEAN_ANOMALY   = 303.4452

EPHEMERIS_TYPE = 0
CLASSIFICATION_TYPE = U
NORAD_CAT_ID   = 65729
ELEMENT_SET_NO = 999
REV_AT_EPOCH   = 636
BSTAR          = .13829347E-2
MEAN_MOTION_DOT = .111484E-2
MEAN_MOTION_DDOT = 0

CCSDS_OMM_VERS = 2.0
CREATION_DATE  = 
ORIGINATOR     = 

OBJECT_NAME    = 1998-067XJ
OBJECT_ID      = 1998-067XJ
CENTER_NAME    = EARTH
REF_FRAME      = TEME
TIME_SYSTEM    = UTC
MEAN_ELEMENT_THEORY = SGP/SGP4

EPOCH          = 2025-10-29T12:45:31.551552
MEAN_MOTION    = 15.66323976
ECCENTRICITY   = .00105392
INCLINATION    = 51.6298
RA_OF_ASC_NODE = 358.8330
ARG_OF_PERICENTER = 29.8375
MEAN_ANOMALY   = 330.3219

EPHEMERIS_TYPE = 0
CLASSIFICATION_TYPE = U
NORAD_CAT_ID   = 65730
ELEMENT_SET_NO = 999
REV_AT_EPOCH   = 625
BSTAR          = .22026575E-2
MEAN_MOTION_DOT = .239609E-2
MEAN_MOTION_DDOT = 0

CCSDS_OMM_VERS = 2.0
CREATION_DATE  = 
ORIGINATOR     = 

OBJECT_NAME    = 1998-067XK
OBJECT_ID      = 1998-067XK
CENTER_NAME    = EARTH
REF_FRAME      = TEME
TIME_SYSTEM    = UTC
MEAN_ELEMENT_THEORY = SGP/SGP4

EPOCH          = 2025-10-29T21:18:46.925568
MEAN_MOTION    = 15.57238385
ECCENTRICITY   = .00047463
INCLINATION    = 51.6331
RA_OF_ASC_NODE = 358.2185
ARG_OF_PERICENTER = 31.9735
MEAN_ANOMALY   = 328.1544

EPHEMERIS_TYPE = 0
CLASSIFICATION_TYPE = U
NORAD_CAT_ID   = 65731
ELEMENT_SET_NO = 999
REV_AT_EPOCH   = 629
BSTAR          = .10514675E-2
MEAN_MOTION_DOT = .78376E-3
MEAN_MOTION_DDOT = 0

CCSDS_OMM_VERS = 2.0
CREATION_DATE  = 
ORIGINATOR     = 

OBJECT_NAME    = RSP-03
OBJECT_ID      = 1998-067XL
CENTER_NAME    = EARTH
REF_FRAME      = TEME
TIME_SYSTEM    = UTC
MEAN_ELEMENT_THEORY = SGP/SGP4

EPOCH          = 2025-10-30T06:18:00.083808
MEAN_MOTION    = 15.58206282
ECCENTRICITY   = .00055347
INCLINATION    = 51.6325
RA_OF_ASC_NODE = 356.2185
ARG_OF_PERICENTER = 33.3341
MEAN_ANOMALY   = 326.7999

EPHEMERIS_TYPE = 0
CLASSIFICATION_TYPE = U
NORAD_CAT_ID   = 65732
ELEMENT_SET_NO = 999
REV_AT_EPOCH   = 636
BSTAR          = .12312352E-2
MEAN_MOTION_DOT = .9549E-3
MEAN_MOTION_DDOT = 0

CCSDS_OMM_VERS = 2.0
CREATION_DATE  = 
ORIGINATOR     = 

OBJECT_NAME    = GHS-01
OBJECT_ID      = 1998-067XM
CENTER_NAME    = EARTH
REF_FRAME      = TEME
TIME_SYSTEM    = UTC
MEAN_ELEMENT_THEORY = SGP/SGP4

EPOCH          = 2025-10-30T07:23:54.394944
MEAN_MOTION    = 15.59809087
ECCENTRICITY   = .00036367
INCLINATION    = 51.6326
RA_OF_ASC_NODE = 355.7752
ARG_OF_PERICENTER = 53.0347
MEAN_ANOMALY   = 307.0978

EPHEMERIS_TYPE = 0
CLASSIFICATION_TYPE = U
NORAD_CAT_ID   = 65733
ELEMENT_SET_NO = 999
REV_AT_EPOCH   = 637
BSTAR          = .15126717E-2
MEAN_MOTION_DOT = .12523E-2
MEAN_MOTION_DDOT = 0

CCSDS_OMM_VERS = 2.0
CREATION_DATE  = 
ORIGINATOR     = 

OBJECT_NAME    = YOTSUBA-KULOVER
OBJECT_ID      = 1998-067XN
CENTER_NAME    = EARTH
REF_FRAME      = TEME
TIME_SYSTEM    = UTC
MEAN_ELEMENT_THEORY = SGP/SGP4

EPOCH          = 2025-10-30T05:38:07.044864
MEAN_MOTION    = 15.52948261
ECCENTRICITY   = .00025134
INCLINATION    = 51.6334
RA_OF_ASC_NODE = 357.5299
ARG_OF_PERICENTER = 335.1462
MEAN_ANOMALY   = 24.9407

EPHEMERIS_TYPE = 0
CLASSIFICATION_TYPE = U
NORAD_CAT_ID   = 65941
ELEMENT_SET_NO = 999
REV_AT_EPOCH   = 308
BSTAR          = .10296449E-2
MEAN_MOTION_DOT = .65369E-3
MEAN_MOTION_DDOT = 0

CCSDS_OMM_VERS = 2.0
CREATION_DATE  = 
ORIGINATOR     = 

OBJECT_NAME    = BOTAN
OBJECT_ID      = 1998-067XP
CENTER_NAME    = EARTH
REF_FRAME      = TEME
TIME_SYSTEM    = UTC
MEAN_ELEMENT_THEORY = SGP/SGP4

EPOCH          = 2025-10-30T05:31:14.732832
MEAN_MOTION    = 15.53700317
ECCENTRICITY   = .00045628
INCLINATION    = 51.6334
RA_OF_ASC_NODE = 357.4989
ARG_OF_PERICENTER = 354.4119
MEAN_ANOMALY   = 5.6819

EPHEMERIS_TYPE = 0
CLASSIFICATION_TYPE = U
NORAD_CAT_ID   = 65942
ELEMENT_SET_NO = 999
REV_AT_EPOCH   = 308
BSTAR          = .13309321E-2
MEAN_MOTION_DOT = .87247E-3
MEAN_MOTION_DDOT = 0

CCSDS_OMM_VERS = 2.0
CREATION_DATE  = 
ORIGINATOR     = 

OBJECT_NAME    = E-KAGAKU-1
OBJECT_ID      = 1998-067XQ
CENTER_NAME    = EARTH
REF_FRAME      = TEME
TIME_SYSTEM    = UTC
MEAN_ELEMENT_THEORY = SGP/SGP4

EPOCH          = 2025-10-29T12:38:09.926592
MEAN_MOTION    = 15.52865826
ECCENTRICITY   = .0004142
INCLINATION    = 51.6334
RA_OF_ASC_NODE = 1.0497
ARG_OF_PERICENTER = 339.6599
MEAN_ANOMALY   = 20.4226

EPHEMERIS_TYPE = 0
CLASSIFICATION_TYPE = U
NORAD_CAT_ID   = 65943
ELEMENT_SET_NO = 999
REV_AT_EPOCH   = 297
BSTAR          = .88576289E-3
MEAN_MOTION_DOT = .55943E-3
MEAN_MOTION_DDOT = 0

CCSDS_OMM_VERS = 2.0
CREATION_DATE  = 
ORIGINATOR     = 

OBJECT_NAME    = HRC MONOBLOCK CAMERA
OBJECT_ID      = 1998-067XR
CENTER_NAME    = EARTH
REF_FRAME      = TEME
TIME_SYSTEM    = UTC
MEAN_ELEMENT_THEORY = SGP/SGP4

EPOCH          = 2025-10-30T07:45:04.620096
MEAN_MOTION    = 15.50461544
ECCENTRICITY   = .00043218
INCLINATION    = 51.6330
RA_OF_ASC_NODE = 357.3680
ARG_OF_PERICENTER = 5.3640
MEAN_ANOMALY   = 354.7395

EPHEMERIS_TYPE = 0
CLASSIFICATION_TYPE = U
NORAD_CAT_ID   = 66052
ELEMENT_SET_NO = 999
REV_AT_EPOCH   = 209
BSTAR          = .65914311E-3
MEAN_MOTION_DOT = .37972E-3
MEAN_MOTION_DDOT = 0

CCSDS_OMM_VERS = 2.0
CREATION_DATE  = 
ORIGINATOR     = 

OBJECT_NAME    = HTV-X1
OBJECT_ID      = 2025-241A
CENTER_NAME    = EARTH
REF_FRAME      = TEME
TIME_SYSTEM    = UTC
MEAN_ELEMENT_THEORY = SGP/SGP4

EPOCH          = 2025-10-27T11:51:43.149024
MEAN_MOTION    = 15.52723727
ECCENTRICITY   = .0004046
INCLINATION    = 51.6338
RA_OF_ASC_NODE = 11.4824
ARG_OF_PERICENTER = 344.0379
MEAN_ANOMALY   = 16.0483

EPHEMERIS_TYPE = 0
CLASSIFICATION_TYPE = U
NORAD_CAT_ID   = 66174
ELEMENT_SET_NO = 999
REV_AT_EPOCH   = 24
BSTAR          = .16773E-3
MEAN_MOTION_DOT = .10095E-3
MEAN_MOTION_DDOT = 0

